{
  "links" : {
    "next" : "https://api.nasa.gov/neo/rest/v1/feed?start_date=2015-10-09&end_date=2015-10-09&detailed=true&api_key=t0TVs3DtDT2H8Oy2Zy8m2eVrNsAVKAexjcZXUckd",
    "prev" : "https://api.nasa.gov/neo/rest/v1/feed?start_date=2015-10-07&end_date=2015-10-07&detailed=true&api_key=t0TVs3DtDT2H8Oy2Zy8m2eVrNsAVKAexjcZXUckd",
    "self" : "https://api.nasa.gov/neo/rest/v1/feed?start_date=2015-10-08&end_date=2015-10-08&detailed=true&api_key=t0TVs3DtDT2H8Oy2Zy8m2eVrNsAVKAexjcZXUckd"
  },
  "element_count" : 12,
  "near_earth_objects" : {
    "2015-10-08" : [ {
      "links" : {
        "self" : "https://api.nasa.gov/neo/rest/v1/neo/3547175?api_key=t0TVs3DtDT2H8Oy2Zy8m2eVrNsAVKAexjcZXUckd"
      },
      "neo_reference_id" : "3547175",
      "name" : "(2010 SX11)",
      "nasa_jpl_url" : "http://ssd.jpl.nasa.gov/sbdb.cgi?sstr=3547175",
      "absolute_magnitude_h" : 24.8,
      "estimated_diameter" : {
        "kilometers" : {
          "estimated_diameter_min" : 0.0291443905,
          "estimated_diameter_max" : 0.0651688382
        },
        "meters" : {
          "estimated_diameter_min" : 29.1443904535,
          "estimated_diameter_max" : 65.1688382168
        },
        "miles" : {
          "estimated_diameter_min" : 0.018109479,
          "estimated_diameter_max" : 0.0404940262
        },
        "feet" : {
          "estimated_diameter_min" : 95.6180819754,
          "estimated_diameter_max" : 213.8085311752
        }
      },
      "is_potentially_hazardous_asteroid" : false,
      "close_approach_data" : [ {
        "close_approach_date" : "2015-10-08",
        "epoch_date_close_approach" : 1444287600000,
        "relative_velocity" : {
          "kilometers_per_second" : "7.9910481558",
          "kilometers_per_hour" : "28767.7733608859",
          "miles_per_hour" : "17875.1756197127"
        },
        "miss_distance" : {
          "astronomical" : "0.0472789114",
          "lunar" : "18.3914966583",
          "kilometers" : "7072824.5",
          "miles" : "4394849.5"
        },
        "orbiting_body" : "Earth"
      } ],
      "orbital_data" : {
        "orbit_id" : "12",
        "orbit_determination_date" : "2017-04-06 08:56:34",
        "orbit_uncertainty" : "7",
        "minimum_orbit_intersection" : ".0257865",
        "jupiter_tisserand_invariant" : "5.403",
        "epoch_osculation" : "2458000.5",
        "eccentricity" : ".248954343793916",
        "semi_major_axis" : "1.158050817693582",
        "inclination" : "5.15888644046452",
        "ascending_node_longitude" : "182.4512420142558",
        "orbital_period" : "455.1870031050065",
        "perihelion_distance" : ".8697490362946688",
        "perihelion_argument" : "267.116661071232",
        "aphelion_distance" : "1.446352599092496",
        "perihelion_time" : "2457818.669119954667",
        "mean_anomaly" : "143.807086691399",
        "mean_motion" : ".7908837412850123",
        "equinox" : "J2000"
      }
    }, {
      "links" : {
        "self" : "https://api.nasa.gov/neo/rest/v1/neo/3730801?api_key=t0TVs3DtDT2H8Oy2Zy8m2eVrNsAVKAexjcZXUckd"
      },
      "neo_reference_id" : "3730801",
      "name" : "(2015 TS238)",
      "nasa_jpl_url" : "http://ssd.jpl.nasa.gov/sbdb.cgi?sstr=3730801",
      "absolute_magnitude_h" : 25.4,
      "estimated_diameter" : {
        "kilometers" : {
          "estimated_diameter_min" : 0.022108281,
          "estimated_diameter_max" : 0.0494356193
        },
        "meters" : {
          "estimated_diameter_min" : 22.1082810359,
          "estimated_diameter_max" : 49.435619262
        },
        "miles" : {
          "estimated_diameter_min" : 0.0137374447,
          "estimated_diameter_max" : 0.0307178602
        },
        "feet" : {
          "estimated_diameter_min" : 72.5337327539,
          "estimated_diameter_max" : 162.1903570994
        }
      },
      "is_potentially_hazardous_asteroid" : false,
      "close_approach_data" : [ {
        "close_approach_date" : "2015-10-08",
        "epoch_date_close_approach" : 1444287600000,
        "relative_velocity" : {
          "kilometers_per_second" : "15.3160500496",
          "kilometers_per_hour" : "55137.7801787227",
          "miles_per_hour" : "34260.4723560514"
        },
        "miss_distance" : {
          "astronomical" : "0.0275165038",
          "lunar" : "10.7039194107",
          "kilometers" : "4116410.25",
          "miles" : "2557818.75"
        },
        "orbiting_body" : "Earth"
      } ],
      "orbital_data" : {
        "orbit_id" : "5",
        "orbit_determination_date" : "2017-04-06 08:31:14",
        "orbit_uncertainty" : "8",
        "minimum_orbit_intersection" : ".00434632",
        "jupiter_tisserand_invariant" : "5.363",
        "epoch_osculation" : "2457311.5",
        "eccentricity" : ".4990562266434421",
        "semi_major_axis" : "1.143023347008826",
        "inclination" : "3.311317108814142",
        "ascending_node_longitude" : "191.2838099968101",
        "orbital_period" : "446.3556934271986",
        "perihelion_distance" : ".5725904284852433",
        "perihelion_argument" : "77.96995983266473",
        "aphelion_distance" : "1.713456265532408",
        "perihelion_time" : "2457244.228497711037",
        "mean_anomaly" : "54.2565966574293",
        "mean_motion" : ".8065316636511474",
        "equinox" : "J2000"
      }
    }, {
      "links" : {
        "self" : "https://api.nasa.gov/neo/rest/v1/neo/3774725?api_key=t0TVs3DtDT2H8Oy2Zy8m2eVrNsAVKAexjcZXUckd"
      },
      "neo_reference_id" : "3774725",
      "name" : "(2017 KU4)",
      "nasa_jpl_url" : "http://ssd.jpl.nasa.gov/sbdb.cgi?sstr=3774725",
      "absolute_magnitude_h" : 23.733,
      "estimated_diameter" : {
        "kilometers" : {
          "estimated_diameter_min" : 0.0476381598,
          "estimated_diameter_max" : 0.1065221636
        },
        "meters" : {
          "estimated_diameter_min" : 47.6381597673,
          "estimated_diameter_max" : 106.5221635626
        },
        "miles" : {
          "estimated_diameter_min" : 0.029600971,
          "estimated_diameter_max" : 0.0661897833
        },
        "feet" : {
          "estimated_diameter_min" : 156.2931800908,
          "estimated_diameter_max" : 349.4821751027
        }
      },
      "is_potentially_hazardous_asteroid" : false,
      "close_approach_data" : [ {
        "close_approach_date" : "2015-10-08",
        "epoch_date_close_approach" : 1444287600000,
        "relative_velocity" : {
          "kilometers_per_second" : "5.5967229603",
          "kilometers_per_hour" : "20148.2026570092",
          "miles_per_hour" : "12519.3095898511"
        },
        "miss_distance" : {
          "astronomical" : "0.2056984758",
          "lunar" : "80.016708374",
          "kilometers" : "30772054",
          "miles" : "19120868"
        },
        "orbiting_body" : "Earth"
      } ],
      "orbital_data" : {
        "orbit_id" : "8",
        "orbit_determination_date" : "2017-07-25 06:17:59",
        "orbit_uncertainty" : "7",
        "minimum_orbit_intersection" : ".0655861",
        "jupiter_tisserand_invariant" : "5.780",
        "epoch_osculation" : "2458000.5",
        "eccentricity" : ".2559074402636569",
        "semi_major_axis" : "1.059505792163028",
        "inclination" : "4.961315927342147",
        "ascending_node_longitude" : "175.4718189270961",
        "orbital_period" : "398.3395512597297",
        "perihelion_distance" : ".7883703769460697",
        "perihelion_argument" : "321.1947031108931",
        "aphelion_distance" : "1.330641207379987",
        "perihelion_time" : "2457814.339331325232",
        "mean_anomaly" : "168.242998996649",
        "mean_motion" : ".9037515829435399",
        "equinox" : "J2000"
      }
    } ]
  }
}